*******************************************************************************
Ephemeris / WWW_USER Mon Mar 24 07:36:58 2025 Pasadena, USA      / Horizons    
*******************************************************************************
Target body name: (2018 RY7)                      {source: JPL#20}
Center body name: Earth (399)                     {source: DE441}
Center-site name: Mauna Kea
*******************************************************************************
Start time      : A.D. 2019-Jan-08 04:08:00.0000 UT      
Stop  time      : A.D. 2019-Jan-08 16:48:00.0000 UT      
Step-size       : 1 minutes
*******************************************************************************
Target pole/equ : undefined
Target radii    : undefined                                                    
Center geodetic : 204.5278, 19.8260847, 4.21024   {E-lon(deg),Lat(deg),Alt(km)}
Center cylindric: 204.5278, 6006.35451, 2151.0229 {E-lon(deg),Dxy(km),Dz(km)}
Center pole/equ : ITRF93                          {East-longitude positive}
Center radii    : 6378.137, 6378.137, 6356.752 km {Equator_a, b, pole_c}       
Target primary  : Sun
Vis. interferer : MOON (R_eq= 1737.400) km        {source: DE441}
Rel. light bend : Sun                             {source: DE441}
Rel. lght bnd GM: 1.3271E+11 km^3/s^2                                          
Small-body perts: Yes                             {source: SB441-N16}
Atmos refraction: NO (AIRLESS)
RA format       : HMS
Time format     : CAL 
Calendar mode   : Mixed Julian/Gregorian
RTS-only print  : NO       
EOP file        : eop.250321.p250617                                           
EOP coverage    : DATA-BASED 1962-JAN-20 TO 2025-MAR-21. PREDICTS-> 2025-JUN-16
Units conversion: 1 au= 149597870.700 km, c= 299792.458 km/s, 1 day= 86400.0 s 
Table cut-offs 1: Elevation (-90.0deg=NO ),Airmass (>38.000=NO), Daylight (YES)
Table cut-offs 2: Solar elongation (  0.0,180.0=NO ),Local Hour Angle( 0.0=NO )
Table cut-offs 3: RA/DEC angular rate (     0.0=NO )                           
*******************************************************************************
Initial IAU76/J2000 heliocentric ecliptic osculating elements (au, days, deg.):
  EPOCH=  2458422.5 ! 2018-Oct-31.00 (TDB)         Residual RMS= .22459        
   EC= .1470549687381346   QR= .8667733479166969   TP= 2458516.8896767548      
   OM= 2.838668085760325   W=  136.9006026425241   IN= 13.35135890147074       
  Equivalent ICRF heliocentric cartesian coordinates (au, au/d):
   X= 8.791791513870114E-01  Y= 4.508422091141234E-01  Z= 3.244113040133835E-01
  VX=-1.085418916943652E-02 VY= 1.006005810562689E-02 VZ= 7.673980932675997E-03
Asteroid physical parameters (km, seconds, rotational period in hours):        
   GM= n.a.                RAD= n.a.               ROTPER= n.a.                
   H= 24.4                 G= .150                 B-V= n.a.                   
                           ALBEDO= n.a.            STYP= n.a.                  
*******************************************************************************
 Date__(UT)__HR:MN     R.A._________(ICRF)_________DEC
******************************************************
$$SOE
 2019-Jan-08 08:14     18 38 55.221451 +35 29 35.60522
 2019-Jan-08 08:15     18 38 55.154239 +35 29 34.30696
 2019-Jan-08 08:16     18 38 55.087051 +35 29 33.00902
 2019-Jan-08 08:17     18 38 55.019887 +35 29 31.71139
 2019-Jan-08 08:18     18 38 54.952746 +35 29 30.41407
 2019-Jan-08 08:19     18 38 54.885628 +35 29 29.11708
 2019-Jan-08 08:20     18 38 54.818533 +35 29 27.82040
 2019-Jan-08 08:21     18 38 54.751461 +35 29 26.52404
 2019-Jan-08 08:22     18 38 54.684411 +35 29 25.22800
 2019-Jan-08 08:23     18 38 54.617384 +35 29 23.93228
 2019-Jan-08 08:24     18 38 54.550378 +35 29 22.63688
 2019-Jan-08 08:25     18 38 54.483395 +35 29 21.34180
 2019-Jan-08 08:26     18 38 54.416432 +35 29 20.04704
 2019-Jan-08 08:27     18 38 54.349492 +35 29 18.75260
 2019-Jan-08 08:28     18 38 54.282572 +35 29 17.45849
 2019-Jan-08 08:29     18 38 54.215673 +35 29 16.16470
 2019-Jan-08 08:30     18 38 54.148795 +35 29 14.87124
 2019-Jan-08 08:31     18 38 54.081937 +35 29 13.57810
 2019-Jan-08 08:32     18 38 54.015099 +35 29 12.28529
 2019-Jan-08 08:33     18 38 53.948282 +35 29 10.99280
 2019-Jan-08 08:34     18 38 53.881484 +35 29 09.70064
 2019-Jan-08 08:35     18 38 53.814705 +35 29 08.40881
 2019-Jan-08 08:36     18 38 53.747946 +35 29 07.11730
 2019-Jan-08 08:37     18 38 53.681206 +35 29 05.82612
 2019-Jan-08 08:38     18 38 53.614484 +35 29 04.53527
 2019-Jan-08 08:39     18 38 53.547781 +35 29 03.24475
 2019-Jan-08 08:40     18 38 53.481097 +35 29 01.95456
 2019-Jan-08 08:41     18 38 53.414430 +35 29 00.66471
 2019-Jan-08 08:42     18 38 53.347782 +35 28 59.37518
 2019-Jan-08 08:43     18 38 53.281151 +35 28 58.08598
 2019-Jan-08 08:44     18 38 53.214537 +35 28 56.79712
 2019-Jan-08 08:45     18 38 53.147941 +35 28 55.50859
 2019-Jan-08 08:46     18 38 53.081361 +35 28 54.22039
 2019-Jan-08 08:47     18 38 53.014798 +35 28 52.93252
 2019-Jan-08 08:48     18 38 52.948252 +35 28 51.64499
 2019-Jan-08 08:49     18 38 52.881722 +35 28 50.35780
 2019-Jan-08 08:50     18 38 52.815207 +35 28 49.07094
 2019-Jan-08 08:51     18 38 52.748709 +35 28 47.78441
 2019-Jan-08 08:52     18 38 52.682226 +35 28 46.49822
 2019-Jan-08 08:53     18 38 52.615758 +35 28 45.21237
 2019-Jan-08 08:54     18 38 52.549305 +35 28 43.92685
 2019-Jan-08 08:55     18 38 52.482867 +35 28 42.64167
 2019-Jan-08 08:56     18 38 52.416444 +35 28 41.35683
 2019-Jan-08 08:57     18 38 52.350035 +35 28 40.07233
 2019-Jan-08 08:58     18 38 52.283640 +35 28 38.78816
 2019-Jan-08 08:59     18 38 52.217258 +35 28 37.50433
 2019-Jan-08 09:00     18 38 52.150891 +35 28 36.22085
 2019-Jan-08 09:01     18 38 52.084536 +35 28 34.93770
 2019-Jan-08 09:02     18 38 52.018195 +35 28 33.65489
 2019-Jan-08 09:03     18 38 51.951867 +35 28 32.37242
 2019-Jan-08 09:04     18 38 51.885551 +35 28 31.09030
 2019-Jan-08 09:05     18 38 51.819248 +35 28 29.80851
 2019-Jan-08 09:06     18 38 51.752957 +35 28 28.52707
 2019-Jan-08 09:07     18 38 51.686677 +35 28 27.24597
 2019-Jan-08 09:08     18 38 51.620410 +35 28 25.96521
 2019-Jan-08 09:09     18 38 51.554154 +35 28 24.68479
 2019-Jan-08 09:10     18 38 51.487909 +35 28 23.40471
 2019-Jan-08 09:11     18 38 51.421675 +35 28 22.12498
 2019-Jan-08 09:12     18 38 51.355451 +35 28 20.84559
 2019-Jan-08 09:13     18 38 51.289238 +35 28 19.56655
 2019-Jan-08 09:14     18 38 51.223036 +35 28 18.28785
 2019-Jan-08 09:15     18 38 51.156843 +35 28 17.00949
 2019-Jan-08 09:16     18 38 51.090660 +35 28 15.73148
 2019-Jan-08 09:17     18 38 51.024487 +35 28 14.45381
 2019-Jan-08 09:18     18 38 50.958322 +35 28 13.17649
 2019-Jan-08 09:19     18 38 50.892167 +35 28 11.89951
 2019-Jan-08 09:20     18 38 50.826021 +35 28 10.62288
 2019-Jan-08 09:21     18 38 50.759883 +35 28 09.34660
 2019-Jan-08 09:22     18 38 50.693753 +35 28 08.07066
 2019-Jan-08 09:23     18 38 50.627632 +35 28 06.79506
 2019-Jan-08 09:24     18 38 50.561518 +35 28 05.51982
 2019-Jan-08 09:25     18 38 50.495411 +35 28 04.24492
 2019-Jan-08 09:26     18 38 50.429312 +35 28 02.97036
 2019-Jan-08 09:27     18 38 50.363220 +35 28 01.69616
 2019-Jan-08 09:28     18 38 50.297135 +35 28 00.42230
 2019-Jan-08 09:29     18 38 50.231057 +35 27 59.14879
 2019-Jan-08 09:30     18 38 50.164984 +35 27 57.87562
 2019-Jan-08 09:31     18 38 50.098918 +35 27 56.60280
 2019-Jan-08 09:32     18 38 50.032858 +35 27 55.33034
 2019-Jan-08 09:33     18 38 49.966803 +35 27 54.05821
 2019-Jan-08 09:34     18 38 49.900754 +35 27 52.78644
 2019-Jan-08 09:35     18 38 49.834709 +35 27 51.51502
 2019-Jan-08 09:36     18 38 49.768670 +35 27 50.24394
 2019-Jan-08 09:37     18 38 49.702635 +35 27 48.97321
 2019-Jan-08 09:38     18 38 49.636605 +35 27 47.70284
 2019-Jan-08 09:39     18 38 49.570578 +35 27 46.43281
 2019-Jan-08 09:40     18 38 49.504556 +35 27 45.16312
 2019-Jan-08 09:41     18 38 49.438537 +35 27 43.89379
 2019-Jan-08 09:42     18 38 49.372522 +35 27 42.62481
 2019-Jan-08 09:43     18 38 49.306509 +35 27 41.35617
 2019-Jan-08 09:44     18 38 49.240500 +35 27 40.08789
 2019-Jan-08 09:45     18 38 49.174493 +35 27 38.81995
 2019-Jan-08 09:46     18 38 49.108489 +35 27 37.55236
 2019-Jan-08 09:47     18 38 49.042486 +35 27 36.28513
 2019-Jan-08 09:48     18 38 48.976486 +35 27 35.01824
 2019-Jan-08 09:49     18 38 48.910487 +35 27 33.75170
 2019-Jan-08 09:50     18 38 48.844490 +35 27 32.48551
 2019-Jan-08 09:51     18 38 48.778494 +35 27 31.21967
 2019-Jan-08 09:52     18 38 48.712499 +35 27 29.95418
 2019-Jan-08 09:53     18 38 48.646505 +35 27 28.68903
 2019-Jan-08 09:54     18 38 48.580511 +35 27 27.42424
 2019-Jan-08 09:55     18 38 48.514517 +35 27 26.15980
 2019-Jan-08 09:56     18 38 48.448523 +35 27 24.89570
 2019-Jan-08 09:57     18 38 48.382529 +35 27 23.63196
 2019-Jan-08 09:58     18 38 48.316534 +35 27 22.36856
 2019-Jan-08 09:59     18 38 48.250538 +35 27 21.10551
 2019-Jan-08 10:00     18 38 48.184542 +35 27 19.84281
 2019-Jan-08 10:01     18 38 48.118544 +35 27 18.58047
 2019-Jan-08 10:02     18 38 48.052545 +35 27 17.31846
 2019-Jan-08 10:03     18 38 47.986544 +35 27 16.05681
 2019-Jan-08 10:04     18 38 47.920541 +35 27 14.79551
 2019-Jan-08 10:05     18 38 47.854535 +35 27 13.53456
 2019-Jan-08 10:06     18 38 47.788527 +35 27 12.27395
 2019-Jan-08 10:07     18 38 47.722517 +35 27 11.01369
 2019-Jan-08 10:08     18 38 47.656503 +35 27 09.75378
 2019-Jan-08 10:09     18 38 47.590486 +35 27 08.49422
 2019-Jan-08 10:10     18 38 47.524466 +35 27 07.23501
 2019-Jan-08 10:11     18 38 47.458442 +35 27 05.97614
 2019-Jan-08 10:12     18 38 47.392414 +35 27 04.71763
 2019-Jan-08 10:13     18 38 47.326382 +35 27 03.45946
 2019-Jan-08 10:14     18 38 47.260345 +35 27 02.20163
 2019-Jan-08 10:15     18 38 47.194303 +35 27 00.94416
 2019-Jan-08 10:16     18 38 47.128257 +35 26 59.68703
